#aV2020  7  3  0  0  0.00000000     288 DD+AD WGS84 FIT  NGA
## 2112 432000.00000000   300.00000000 59033 0.0000000000000
+   31     1  2  3  4  5  6  7  8  9 10 11 12 13 14 15 16 17
+         18 19 20 21 22 24 25 26 27 28 29 30 31 32  0  0  0
+          0  0  0  0  0  0  0  0  0  0  0  0  0  0  0  0  0
+          0  0  0  0  0  0  0  0  0  0  0  0  0  0  0  0  0
+          0  0  0  0  0  0  0  0  0  0  0  0  0  0  0  0  0
++         2  2  2  2  2  2  2  2  2  2  2  2  2  2  2  2  2
++         2  2  2  2  2  2  2  2  2  2  2  2  2  2  0  0  0
++         0  0  0  0  0  0  0  0  0  0  0  0  0  0  0  0  0
++         0  0  0  0  0  0  0  0  0  0  0  0  0  0  0  0  0
++         0  0  0  0  0  0  0  0  0  0  0  0  0  0  0  0  0
%c cc cc ccc ccc cccc cccc cccc cccc ccccc ccccc ccccc ccccc
%c cc cc ccc ccc cccc cccc cccc cccc ccccc ccccc ccccc ccccc
%f  0.0000000  0.000000000  0.00000000000  0.000000000000000
%f  0.0000000  0.000000000  0.00000000000  0.000000000000000
%i    0    0    0    0      0      0      0      0         0
%i    0    0    0    0      0      0      0      0         0
/*      NGA, ST. LOUIS,MO.                                  
/*   EPHEMERIS COMPUTED FROM 2 DAYS OF DATA                 
/*   EPOCHA v5 SMOOTHER                                     
/*   G1762 IERS2010 SATAF SATAPC                            
*  2020  7  3 20 25  0.00000000
P  1  14727.655571  13972.352800 -17534.775148     20.825589                    
V  1 -21570.615067  -2001.492645 -19648.866469      0.055578                    
P  2   8705.240595 -14334.709000  21227.746537   -481.785160                    
V  2  25410.616483   2401.992826  -9122.974434     -0.058069                    
P  3  12229.390688  23361.355563   3569.369447   -228.613566                    
V  3   -595.942441   5214.010670 -31381.798437     -0.118134                    
P  4   7872.658246  13856.955534  21254.130323   -110.295650                    
V  4 -17658.853960  20395.435897  -6791.901596     -0.047033                    
P  5    935.312490 -22331.731856  14054.512585    -15.906685                    
V  5   9710.275093  15574.600787  24055.352551     -0.007658                    
P  6  20662.567226  -7387.161502  15044.295557   -298.026494                    
V  6  18577.635117   4088.633814 -23544.562856     -0.054233                    
P  7  25996.669460   6026.277251   3080.694251   -318.941581                    
V  7  -3819.658163   2063.455400  30945.819767     -0.087970                    
P  8  -1984.686746  20980.285334 -15996.592252    -39.718129                    
V  8 -13754.342869  15206.413783  21885.626987     -0.012883                    
P  9  16505.033781   2434.373637  20621.033063   -247.384458                    
V  9 -15024.714524  21631.403410   9433.044777     -0.066228                    
P 10 -15019.860920   2814.058119 -21653.741708   -389.386152                    
V 10 -10368.638869 -25651.328154   3608.334518     -0.108656                    
P 11   4555.820579  15855.633420 -21314.280979   -231.236157                    
V 11 -24685.679683   8611.000035    824.931210      0.106423                    
P 12 -10413.467788 -24254.415376   3388.222666     98.358377                    
V 12    596.186827  -5007.666135 -31653.550701     -0.048566                    
P 13  10853.034379 -21590.186796 -11027.303506     23.629817                    
V 13  11423.817901  -8161.619109  27612.910336      0.032561                    
P 14 -18901.604664  18315.100533  -2355.045699     -1.325182                    
V 14     79.794182  -4571.312688 -31671.813460      0.028082                    
P 15  -1339.936920 -21041.489133 -16246.272189   -219.994537                    
V 15  12895.386519 -15898.658818  20299.940967      0.025781                    
P 16  -1219.919465  23333.354937  11981.324611   -178.206055                    
V 16  -6810.300241 -14317.674092  27138.034581     -0.047465                    
P 17  20473.482077 -12770.262629 -10627.828190    290.425425                    
V 17  -7767.819073  11947.923153 -28250.460146      0.058559                    
P 18 -25778.763618  -5931.013059   2557.096526    237.043780                    
V 18   3639.208527  -2117.132986  31595.329176      0.098805                    
P 19  20031.674419 -16968.771329  -4187.988688   -136.848505                    
V 19  -1873.683983   5030.113374 -31657.392163      0.050710                    
P 20 -19076.745782  -8515.198795 -16607.669229    527.378041                    
V 20  -8615.224806 -19198.247761  19604.875289     -0.000983                    
P 21 -24082.476769   4798.559631  -9029.528552     19.315194                    
V 21 -12373.825019  -4000.595547  28814.996145      0.046615                    
P 22   9269.202157  24601.593257  -4094.517836   -774.381602                    
V 22  -5675.541635  -3207.994444 -30419.948649      0.023587                    
P 24 -13094.176752 -14500.896050 -18348.487856    -15.170934                    
V 24  22907.015450     42.399932 -16191.021527     -0.004467                    
P 25 -16073.408497 -17468.872876  11939.827198     19.410430                    
V 25  -3886.871933 -15080.620725 -26511.113361      0.040134                    
P 26  -9368.097303  14462.862791  20119.677618    236.837761                    
V 26 -11755.992112 -22926.340994  11209.378192      0.068917                    
P 27 -11213.642618  22745.330287  -7434.019858   -336.668890                    
V 27  -7580.744407   5915.083600  30444.051720     -0.097244                    
P 28  14092.527547  -3769.018149 -21614.974300    702.971449                    
V 28   8301.743702  27586.613221    729.793515     -0.034905                    
P 29 -13009.137816  -7267.669041  21940.957766   -142.118907                    
V 29  18375.079986 -20994.887407   3900.747713     -0.086090                    
P 30  25461.117588  -1457.715452  -7761.225923   -254.659120                    
V 30   9231.530561   4733.701424  28999.148560     -0.077973                    
P 31 -19876.874106   8098.551593  15889.991154    -53.231596                    
V 31 -19545.960479  -4932.229196 -21429.694271     -0.025161                    
P 32 -19880.780695  14049.535999 -10356.367106    310.979014                    
V 32   5901.044267 -12267.023246 -27884.150055      0.064518                    
EOF
